{
  "type": "FeatureCollection",
  "_comment": "The three deportations from Judah to Babylon (597, 586, 582 BCE). Dotted lines, slightly offset so all three are visible. Sources: 2 Kings 24-25, Jeremiah 52:28-30, Babylonian Chronicle.",
  "features": [
    {
      "type": "Feature",
      "properties": {
        "name": "First deportation — 597 BCE",
        "kind": "deportation",
        "mode": "both",
        "start": 597,
        "end": 597,
        "color": "#a63a2e",
        "label": "597 BCE — Jehoiachin and 10,000",
        "popup": {
          "bible": "'He carried into exile all Jerusalem: all the officials and all the warriors, ten thousand captives' (2 Kgs 24:14).",
          "archaeology": "The Babylonian Chronicle confirms the capture; the Jehoiachin ration tablets show the exiled king living at court, receiving oil.",
          "source": "2 Kings 24; Babylonian Chronicle; ration tablets"
        }
      },
      "geometry": {
        "type": "LineString",
        "coordinates": [[35.23, 31.78], [36.0, 32.2], [37.2, 33.0], [38.5, 33.4], [40.5, 33.9], [42.5, 33.4], [44.42, 32.54]]
      }
    },
    {
      "type": "Feature",
      "properties": {
        "name": "Second deportation — 586 BCE",
        "kind": "deportation",
        "mode": "both",
        "start": 586,
        "end": 586,
        "color": "#a63a2e",
        "label": "586 BCE — the city burns",
        "popup": {
          "bible": "'The rest of the people who were left in the city he carried into exile... but left some of the poorest of the land to be vinedressers and tillers of the soil' (2 Kgs 25:11-12).",
          "archaeology": "The city's elite are taken; the poor remain to farm. This is standard Neo-Babylonian policy: remove the leaders, keep the labor.",
          "source": "2 Kings 25; Lipschits, The Fall and Rise of Jerusalem"
        }
      },
      "geometry": {
        "type": "LineString",
        "coordinates": [[35.23, 31.78], [36.1, 32.3], [37.3, 33.1], [38.6, 33.5], [40.6, 34.0], [42.6, 33.5], [44.42, 32.54]]
      }
    },
    {
      "type": "Feature",
      "properties": {
        "name": "Third deportation — 582 BCE",
        "kind": "deportation",
        "mode": "both",
        "start": 582,
        "end": 582,
        "color": "#a63a2e",
        "label": "582 BCE — the last 745",
        "popup": {
          "bible": "'In the twenty-third year of Nebuchadnezzar... he carried away captive of the Jews 745 persons' (Jer 52:30).",
          "archaeology": "A punitive deportation after the assassination of Gedaliah, the Babylonian-appointed governor — the last gasp of the old order.",
          "source": "Jeremiah 52:28-30; 2 Kings 25:22-26"
        }
      },
      "geometry": {
        "type": "LineString",
        "coordinates": [[35.23, 31.78], [36.2, 32.4], [37.4, 33.2], [38.7, 33.6], [40.7, 34.1], [42.7, 33.6], [44.42, 32.54]]
      }
    }
  ]
}
